STARLINK-32777          
1 62525U 25004Q   26068.48738830  .00034548  00000+0  12579-2 0  9993
2 62525  43.0031 221.3646 0002890 279.5480  80.5044 15.27610049 66425
LIME                    
1 62648U 25009AR  26068.73906781  .00013254  00000+0  47723-3 0  9995
2 62648  97.3985 151.4831 0001635  35.9029 324.2320 15.28703313 63766
